{
  "type": "FeatureCollection",
  "features": [
    {
      "type": "Feature",
      "properties": {
        "norad_id": 58701,
        "name": "TIANMU-1 16",
        "group": "weather",
        "lat": 42.835375229467374,
        "lon": 158.3756945876179,
        "alt_km": 489.5351195861913,
        "timestamp": "2025-12-10T11:33:53.034699+00:00",
        "meta_object_name": "TIANMU-1 16",
        "meta_object_id": "2024-004B",
        "meta_epoch": "2025-12-10T05:04:25.773024",
        "meta_mean_motion": 15.24376956,
        "meta_eccentricity": 0.0004605,
        "meta_inclination": 97.457,
        "meta_ra_of_asc_node": 165.0818,
        "meta_arg_of_pericenter": 307.6999,
        "meta_mean_anomaly": 52.382,
        "meta_ephemeris_type": 0,
        "meta_classification_type": "U",
        "meta_norad_cat_id": 58701,
        "meta_element_set_no": 999,
        "meta_rev_at_epoch": 10696,
        "meta_bstar": 0.00039055,
        "meta_mean_motion_dot": 9.5e-05,
        "meta_mean_motion_ddot": 0,
        "tle_line1": "1 58701U 24004B   25344.21140941  .00009500  00000+0  39055-3 0  9999",
        "tle_line2": "2 58701  97.4570 165.0818 0004605 307.6999  52.3820 15.24376956106962"
      },
      "geometry": {
        "type": "Point",
        "coordinates": [
          158.3756945876179,
          42.835375229467374
        ]
      }
    },
    {
      "type": "Feature",
      "properties": {
        "norad_id": 58702,
        "name": "TIANMU-1 17",
        "group": "weather",
        "lat": 51.846650928305436,
        "lon": -4.638082847515764,
        "alt_km": 490.36335460785085,
        "timestamp": "2025-12-10T11:33:53.034709+00:00",
        "meta_object_name": "TIANMU-1 17",
        "meta_object_id": "2024-004C",
        "meta_epoch": "2025-12-10T04:42:21.204864",
        "meta_mean_motion": 15.2442154,
        "meta_eccentricity": 0.0003823,
        "meta_inclination": 97.4605,
        "meta_ra_of_asc_node": 165.4753,
        "meta_arg_of_pericenter": 311.5126,
        "meta_mean_anomaly": 48.5783,
        "meta_ephemeris_type": 0,
        "meta_classification_type": "U",
        "meta_norad_cat_id": 58702,
        "meta_element_set_no": 999,
        "meta_rev_at_epoch": 10695,
        "meta_bstar": 0.00040996,
        "meta_mean_motion_dot": 9.989e-05,
        "meta_mean_motion_ddot": 0,
        "tle_line1": "1 58702U 24004C   25344.19607876  .00009989  00000+0  40996-3 0  9999",
        "tle_line2": "2 58702  97.4605 165.4753 0003823 311.5126  48.5783 15.24421540106955"
      },
      "geometry": {
        "type": "Point",
        "coordinates": [
          -4.638082847515764,
          51.846650928305436
        ]
      }
    },
    {
      "type": "Feature",
      "properties": {
        "norad_id": 58703,
        "name": "TIANMU-1 18",
        "group": "weather",
        "lat": -38.74369431184016,
        "lon": -20.08256818595427,
        "alt_km": 499.15840787077195,
        "timestamp": "2025-12-10T11:33:53.034719+00:00",
        "meta_object_name": "TIANMU-1 18",
        "meta_object_id": "2024-004D",
        "meta_epoch": "2025-12-10T04:18:17.791776",
        "meta_mean_motion": 15.24410452,
        "meta_eccentricity": 0.0003166,
        "meta_inclination": 97.4622,
        "meta_ra_of_asc_node": 165.6534,
        "meta_arg_of_pericenter": 312.6261,
        "meta_mean_anomaly": 47.4709,
        "meta_ephemeris_type": 0,
        "meta_classification_type": "U",
        "meta_norad_cat_id": 58703,
        "meta_element_set_no": 999,
        "meta_rev_at_epoch": 10695,
        "meta_bstar": 0.00039647,
        "meta_mean_motion_dot": 9.654e-05,
        "meta_mean_motion_ddot": 0,
        "tle_line1": "1 58703U 24004D   25344.17937259  .00009654  00000+0  39647-3 0  9999",
        "tle_line2": "2 58703  97.4622 165.6534 0003166 312.6261  47.4709 15.24410452106952"
      },
      "geometry": {
        "type": "Point",
        "coordinates": [
          -20.08256818595427,
          -38.74369431184016
        ]
      }
    },
    {
      "type": "Feature",
      "properties": {
        "norad_id": 58990,
        "name": "INSAT-3DS",
        "group": "weather",
        "lat": -0.015794310006720134,
        "lon": -24.985777833956398,
        "alt_km": 35784.29885411134,
        "timestamp": "2025-12-10T11:33:53.034731+00:00",
        "meta_object_name": "INSAT-3DS",
        "meta_object_id": "2024-033A",
        "meta_epoch": "2025-12-10T00:35:38.775840",
        "meta_mean_motion": 1.00269607,
        "meta_eccentricity": 0.0001616,
        "meta_inclination": 0.0292,
        "meta_ra_of_asc_node": 112.0604,
        "meta_arg_of_pericenter": 153.6709,
        "meta_mean_anomaly": 264.2623,
        "meta_ephemeris_type": 0,
        "meta_classification_type": "U",
        "meta_norad_cat_id": 58990,
        "meta_element_set_no": 999,
        "meta_rev_at_epoch": 4517,
        "meta_bstar": 0,
        "meta_mean_motion_dot": -1.52e-06,
        "meta_mean_motion_ddot": 0,
        "tle_line1": "1 58990U 24033A   25344.02475435 -.00000152  00000+0  00000+0 0  9998",
        "tle_line2": "2 58990   0.0292 112.0604 0001616 153.6709 264.2623  1.00269607 45178"
      },
      "geometry": {
        "type": "Point",
        "coordinates": [
          -24.985777833956398,
          -0.015794310006720134
        ]
      }
    },
    {
      "type": "Feature",
      "properties": {
        "norad_id": 59051,
        "name": "METEOR-M2 4",
        "group": "weather",
        "lat": 37.50859769394545,
        "lon": 128.15684194541222,
        "alt_km": 818.2482521985248,
        "timestamp": "2025-12-10T11:33:53.034741+00:00",
        "meta_object_name": "METEOR-M2 4",
        "meta_object_id": "2024-039A",
        "meta_epoch": "2025-12-10T04:08:49.920864",
        "meta_mean_motion": 14.22400601,
        "meta_eccentricity": 0.0007181,
        "meta_inclination": 98.6762,
        "meta_ra_of_asc_node": 301.122,
        "meta_arg_of_pericenter": 5.887,
        "meta_mean_anomaly": 354.2391,
        "meta_ephemeris_type": 0,
        "meta_classification_type": "U",
        "meta_norad_cat_id": 59051,
        "meta_element_set_no": 999,
        "meta_rev_at_epoch": 9239,
        "meta_bstar": 5.658e-05,
        "meta_mean_motion_dot": 8.2e-07,
        "meta_mean_motion_ddot": 0,
        "tle_line1": "1 59051U 24039A   25344.17280001  .00000082  00000+0  56580-4 0  9992",
        "tle_line2": "2 59051  98.6762 301.1220 0007181   5.8870 354.2391 14.22400601 92394"
      },
      "geometry": {
        "type": "Point",
        "coordinates": [
          128.15684194541222,
          37.50859769394545
        ]
      }
    },
    {
      "type": "Feature",
      "properties": {
        "norad_id": 60133,
        "name": "GOES 19",
        "group": "weather",
        "lat": -0.0019443798366409347,
        "lon": 177.73054454727745,
        "alt_km": 35789.86268156632,
        "timestamp": "2025-12-10T11:33:53.034755+00:00",
        "meta_object_name": "GOES 19",
        "meta_object_id": "2024-119A",
        "meta_epoch": "2025-12-10T04:15:38.659392",
        "meta_mean_motion": 1.00271292,
        "meta_eccentricity": 0.0001349,
        "meta_inclination": 0.0042,
        "meta_ra_of_asc_node": 252.4187,
        "meta_arg_of_pericenter": 54.9848,
        "meta_mean_anomaly": 120.4829,
        "meta_ephemeris_type": 0,
        "meta_classification_type": "U",
        "meta_norad_cat_id": 60133,
        "meta_element_set_no": 999,
        "meta_rev_at_epoch": 506,
        "meta_bstar": 0,
        "meta_mean_motion_dot": -2.45e-06,
        "meta_mean_motion_ddot": 0,
        "tle_line1": "1 60133U 24119A   25344.17753078 -.00000245  00000+0  00000+0 0  9996",
        "tle_line2": "2 60133   0.0042 252.4187 0001349  54.9848 120.4829  1.00271292  5066"
      },
      "geometry": {
        "type": "Point",
        "coordinates": [
          177.73054454727745,
          -0.0019443798366409347
        ]
      }
    },
    {
      "type": "Feature",
      "properties": {
        "norad_id": 65815,
        "name": "FENGYUN 3H",
        "group": "weather",
        "lat": 40.35945211477744,
        "lon": -83.31895538772058,
        "alt_km": 822.1625570292381,
        "timestamp": "2025-12-10T11:33:53.034769+00:00",
        "meta_object_name": "FENGYUN 3H",
        "meta_object_id": "2025-219A",
        "meta_epoch": "2025-12-10T02:54:59.770368",
        "meta_mean_motion": 14.19903515,
        "meta_eccentricity": 6.03e-05,
        "meta_inclination": 98.6581,
        "meta_ra_of_asc_node": 283.7688,
        "meta_arg_of_pericenter": 86.9514,
        "meta_mean_anomaly": 273.1732,
        "meta_ephemeris_type": 0,
        "meta_classification_type": "U",
        "meta_norad_cat_id": 65815,
        "meta_element_set_no": 999,
        "meta_rev_at_epoch": 1055,
        "meta_bstar": 0.0001029,
        "meta_mean_motion_dot": 1.75e-06,
        "meta_mean_motion_ddot": 0,
        "tle_line1": "1 65815U 25219A   25344.12152512  .00000175  00000+0  10290-3 0  9998",
        "tle_line2": "2 65815  98.6581 283.7688 0000603  86.9514 273.1732 14.19903515 10552"
      },
      "geometry": {
        "type": "Point",
        "coordinates": [
          -83.31895538772058,
          40.35945211477744
        ]
      }
    }
  ]
}